{
  "type": "FeatureCollection",
  "features": [
    {
      "type": "Feature",
      "properties": {
        "norad_id": 46997,
        "name": "FENGYUN 1C DEB",
        "group": "fengyun-1c-debris",
        "lat": 81.3805654894541,
        "lon": -75.21981285432686,
        "alt_km": 793.1810799652021,
        "timestamp": "2025-12-06T20:37:56.363553+00:00",
        "meta_object_name": "FENGYUN 1C DEB",
        "meta_object_id": "1999-025EZX",
        "meta_epoch": "2025-12-05T21:29:55.692672",
        "meta_mean_motion": 14.27942614,
        "meta_eccentricity": 0.00249135,
        "meta_inclination": 98.5588,
        "meta_ra_of_asc_node": 20.3738,
        "meta_arg_of_pericenter": 357.0536,
        "meta_mean_anomaly": 181.4476,
        "meta_ephemeris_type": 0,
        "meta_classification_type": "U",
        "meta_norad_cat_id": 46997,
        "meta_element_set_no": 999,
        "meta_rev_at_epoch": 62353,
        "meta_bstar": 0.001888595,
        "meta_mean_motion_dot": 4.655e-05,
        "meta_mean_motion_ddot": 0,
        "tle_line1": "1 46997U 99025EZX 25339.89578348  .00004655  00000+0  18886-2 0  9996",
        "tle_line2": "2 46997  98.5588  20.3738 0024913 357.0536 181.4476 14.27942614623531"
      },
      "geometry": {
        "type": "Point",
        "coordinates": [
          -75.21981285432686,
          81.3805654894541
        ]
      }
    },
    {
      "type": "Feature",
      "properties": {
        "norad_id": 47001,
        "name": "FENGYUN 1C DEB",
        "group": "fengyun-1c-debris",
        "lat": -70.58862774878635,
        "lon": -169.32311564434207,
        "alt_km": 808.1256364189057,
        "timestamp": "2025-12-06T20:37:56.363564+00:00",
        "meta_object_name": "FENGYUN 1C DEB",
        "meta_object_id": "1999-025FAB",
        "meta_epoch": "2025-12-04T09:01:49.792800",
        "meta_mean_motion": 14.38345772,
        "meta_eccentricity": 0.0052258,
        "meta_inclination": 99.3061,
        "meta_ra_of_asc_node": 35.7191,
        "meta_arg_of_pericenter": 74.0796,
        "meta_mean_anomaly": 286.6138,
        "meta_ephemeris_type": 0,
        "meta_classification_type": "U",
        "meta_norad_cat_id": 47001,
        "meta_element_set_no": 999,
        "meta_rev_at_epoch": 73794,
        "meta_bstar": 0.0037257,
        "meta_mean_motion_dot": 0.00011498,
        "meta_mean_motion_ddot": 0,
        "tle_line1": "1 47001U 99025FAB 25338.37627075  .00011498  00000+0  37257-2 0  9993",
        "tle_line2": "2 47001  99.3061  35.7191 0052258  74.0796 286.6138 14.38345772737941"
      },
      "geometry": {
        "type": "Point",
        "coordinates": [
          -169.32311564434207,
          -70.58862774878635
        ]
      }
    },
    {
      "type": "Feature",
      "properties": {
        "norad_id": 47005,
        "name": "FENGYUN 1C DEB",
        "group": "fengyun-1c-debris",
        "lat": -8.608550059538514,
        "lon": -112.08350103700059,
        "alt_km": 843.6751723953439,
        "timestamp": "2025-12-06T20:37:56.363574+00:00",
        "meta_object_name": "FENGYUN 1C DEB",
        "meta_object_id": "1999-025FAF",
        "meta_epoch": "2025-12-03T11:49:12.815616",
        "meta_mean_motion": 14.10913141,
        "meta_eccentricity": 0.00635736,
        "meta_inclination": 99.6019,
        "meta_ra_of_asc_node": 65.7889,
        "meta_arg_of_pericenter": 267.3996,
        "meta_mean_anomaly": 108.1197,
        "meta_ephemeris_type": 0,
        "meta_classification_type": "U",
        "meta_norad_cat_id": 47005,
        "meta_element_set_no": 999,
        "meta_rev_at_epoch": 82637,
        "meta_bstar": 0.0032335345,
        "meta_mean_motion_dot": 5.865e-05,
        "meta_mean_motion_ddot": 0,
        "tle_line1": "1 47005U 99025FAF 25337.49250944  .00005865  00000+0  32335-2 0  9999",
        "tle_line2": "2 47005  99.6019  65.7889 0063573 267.3996 108.1197 14.10913141826379"
      },
      "geometry": {
        "type": "Point",
        "coordinates": [
          -112.08350103700059,
          -8.608550059538514
        ]
      }
    },
    {
      "type": "Feature",
      "properties": {
        "norad_id": 47007,
        "name": "FENGYUN 1C DEB",
        "group": "fengyun-1c-debris",
        "lat": -71.47155047680262,
        "lon": -2.0454346501445584,
        "alt_km": 1082.3864187349582,
        "timestamp": "2025-12-06T20:37:56.363610+00:00",
        "meta_object_name": "FENGYUN 1C DEB",
        "meta_object_id": "1999-025FAH",
        "meta_epoch": "2025-12-06T09:07:21.294912",
        "meta_mean_motion": 13.97150222,
        "meta_eccentricity": 0.02357639,
        "meta_inclination": 98.2069,
        "meta_ra_of_asc_node": 203.0315,
        "meta_arg_of_pericenter": 71.5722,
        "meta_mean_anomaly": 291.0918,
        "meta_ephemeris_type": 0,
        "meta_classification_type": "U",
        "meta_norad_cat_id": 47007,
        "meta_element_set_no": 999,
        "meta_rev_at_epoch": 78760,
        "meta_bstar": 0.003786332,
        "meta_mean_motion_dot": 6.669e-05,
        "meta_mean_motion_ddot": 0,
        "tle_line1": "1 47007U 99025FAH 25340.38010758  .00006669  00000+0  37863-2 0  9994",
        "tle_line2": "2 47007  98.2069 203.0315 0235763  71.5722 291.0918 13.97150222787608"
      },
      "geometry": {
        "type": "Point",
        "coordinates": [
          -2.0454346501445584,
          -71.47155047680262
        ]
      }
    },
    {
      "type": "Feature",
      "properties": {
        "norad_id": 47009,
        "name": "FENGYUN 1C DEB",
        "group": "fengyun-1c-debris",
        "lat": 29.02857524476711,
        "lon": -39.62736060911488,
        "alt_km": 1223.3360319646,
        "timestamp": "2025-12-06T20:37:56.363622+00:00",
        "meta_object_name": "FENGYUN 1C DEB",
        "meta_object_id": "1999-025FAK",
        "meta_epoch": "2025-12-02T05:09:31.123584",
        "meta_mean_motion": 13.37303446,
        "meta_eccentricity": 0.0352227,
        "meta_inclination": 98.9376,
        "meta_ra_of_asc_node": 321.2954,
        "meta_arg_of_pericenter": 285.6992,
        "meta_mean_anomaly": 70.555,
        "meta_ephemeris_type": 0,
        "meta_classification_type": "U",
        "meta_norad_cat_id": 47009,
        "meta_element_set_no": 999,
        "meta_rev_at_epoch": 58668,
        "meta_bstar": 0.00057132,
        "meta_mean_motion_dot": 3.87e-06,
        "meta_mean_motion_ddot": 0,
        "tle_line1": "1 47009U 99025FAK 25336.21494356  .00000387  00000+0  57132-3 0  9996",
        "tle_line2": "2 47009  98.9376 321.2954 0352227 285.6992  70.5550 13.37303446586681"
      },
      "geometry": {
        "type": "Point",
        "coordinates": [
          -39.62736060911488,
          29.02857524476711
        ]
      }
    },
    {
      "type": "Feature",
      "properties": {
        "norad_id": 47012,
        "name": "FENGYUN 1C DEB",
        "group": "fengyun-1c-debris",
        "lat": -77.64984142803802,
        "lon": -95.47382946279612,
        "alt_km": 1091.9140192734876,
        "timestamp": "2025-12-06T20:37:56.363633+00:00",
        "meta_object_name": "FENGYUN 1C DEB",
        "meta_object_id": "1999-025FAN",
        "meta_epoch": "2025-12-05T22:22:36.481152",
        "meta_mean_motion": 13.77908149,
        "meta_eccentricity": 0.01638485,
        "meta_inclination": 98.755,
        "meta_ra_of_asc_node": 218.9381,
        "meta_arg_of_pericenter": 81.7177,
        "meta_mean_anomaly": 280.2518,
        "meta_ephemeris_type": 0,
        "meta_classification_type": "U",
        "meta_norad_cat_id": 47012,
        "meta_element_set_no": 999,
        "meta_rev_at_epoch": 54479,
        "meta_bstar": 0.00065808903,
        "meta_mean_motion_dot": 6.91e-06,
        "meta_mean_motion_ddot": 0,
        "tle_line1": "1 47012U 99025FAN 25339.93236668  .00000691  00000+0  65809-3 0  9990",
        "tle_line2": "2 47012  98.7550 218.9381 0163848  81.7177 280.2518 13.77908149544797"
      },
      "geometry": {
        "type": "Point",
        "coordinates": [
          -95.47382946279612,
          -77.64984142803802
        ]
      }
    },
    {
      "type": "Feature",
      "properties": {
        "norad_id": 47013,
        "name": "FENGYUN 1C DEB",
        "group": "fengyun-1c-debris",
        "lat": 34.831439413054866,
        "lon": -123.20289741706875,
        "alt_km": 772.6827084398128,
        "timestamp": "2025-12-06T20:37:56.363643+00:00",
        "meta_object_name": "FENGYUN 1C DEB",
        "meta_object_id": "1999-025FAP",
        "meta_epoch": "2025-11-16T11:10:59.954016",
        "meta_mean_motion": 14.24672933,
        "meta_eccentricity": 0.00559466,
        "meta_inclination": 98.0819,
        "meta_ra_of_asc_node": 32.3431,
        "meta_arg_of_pericenter": 238.0397,
        "meta_mean_anomaly": 121.5338,
        "meta_ephemeris_type": 0,
        "meta_classification_type": "U",
        "meta_norad_cat_id": 47013,
        "meta_element_set_no": 999,
        "meta_rev_at_epoch": 72885,
        "meta_bstar": 0.0028202138,
        "meta_mean_motion_dot": 6.632e-05,
        "meta_mean_motion_ddot": 0,
        "tle_line1": "1 47013U 99025FAP 25320.46597169  .00006632  00000+0  28202-2 0  9991",
        "tle_line2": "2 47013  98.0819  32.3431 0055946 238.0397 121.5338 14.24672933728853"
      },
      "geometry": {
        "type": "Point",
        "coordinates": [
          -123.20289741706875,
          34.831439413054866
        ]
      }
    }
  ]
}